NORAD_CAT_ID,OBJECT_NAME,OBJECT_TYPE,EPOCH,MEAN_MOTION,ECCENTRICITY,INCLINATION,RA_OF_ASC_NODE,ARG_OF_PERICENTER,MEAN_ANOMALY,BSTAR,MEAN_MOTION_DOT,MEAN_MOTION_DDOT,TLE_LINE0,TLE_LINE1,TLE_LINE2,SEMIMAJOR_AXIS,PERIOD,APOGEE,PERIGEE,DECAYED
52862.0,STARLINK-4010,PAYLOAD,2024-02-19 11:57:54,15.08835665,0.0001657,53.2183,147.3745,94.1757,265.9424,1.3309e-05,-7.6e-07,0.0,0 STARLINK-4010,1 52862U 22062AJ  24050.49854198 -.00000076  00000-0  13309-4 0  9998,2 52862  53.2183 147.3745 0001657  94.1757 265.9424 15.08835665 93315,6917.894,95.438,540.905,538.612,0.0
52862.0,STARLINK-4010,PAYLOAD,2024-02-19 13:33:17,15.08839498,0.0001588,53.2179,147.0763,92.6622,267.4552,2.6165e-05,1.28e-06,0.0,0 STARLINK-4010,1 52862U 22062AJ  24050.56478066  .00000128  00000-0  26165-4 0  9993,2 52862  53.2179 147.0763 0001588  92.6622 267.4552 15.08839498 92837,6917.882,95.438,540.845,538.648,0.0
52862.0,STARLINK-4010,PAYLOAD,2024-02-19 23:05:35,15.0883655,0.0001569,53.2183,145.2934,89.6636,270.4536,2.4503e-05,1.02e-06,0.0,0 STARLINK-4010,1 52862U 22062AJ  24050.96222177  .00000102  00000-0  24503-4 0  9993,2 52862  53.2183 145.2934 0001569  89.6636 270.4536 15.08836550 92890,6917.891,95.438,540.841,538.671,0.0
52862.0,STARLINK-4010,PAYLOAD,2024-02-20 13:24:04,15.0883566,0.0001626,53.2177,142.6148,83.893,276.2248,-4.4625e-05,-9.98e-06,0.0,0 STARLINK-4010,1 52862U 22062AJ  24051.55838756 -.00000998  00000-0 -44625-4 0  9997,2 52862  53.2177 142.6148 0001626  83.8930 276.2248 15.08835660 92983,6917.894,95.438,540.884,538.634,0.0
52862.0,STARLINK-4010,PAYLOAD,2024-02-21 11:39:27,15.08845203,0.000175,53.2186,138.4515,89.976,270.1433,0.00014054,1.95e-05,0.0,0 STARLINK-4010,1 52862U 22062AJ  24052.48573781  .00001950  00000-0  14054-3 0  9993,2 52862  53.2186 138.4515 0001750  89.9760 270.1433 15.08845203 93614,6917.864,95.437,540.94,538.519,0.0
52862.0,STARLINK-4010,PAYLOAD,2024-02-21 14:50:13,15.088482,0.0001526,53.217,137.8568,82.5738,277.5428,0.00016331,2.313e-05,0.0,0 STARLINK-4010,1 52862U 22062AJ  24052.61821513  .00002313  00000-0  16331-3 0  9991,2 52862  53.2170 137.8568 0001526  82.5738 277.5428 15.08848200 93146,6917.855,95.437,540.776,538.665,0.0
52862.0,STARLINK-4010,PAYLOAD,2024-02-22 11:30:15,15.08836473,0.0001587,53.2179,133.9911,89.3433,270.7741,0.00010718,1.418e-05,0.0,0 STARLINK-4010,1 52862U 22062AJ  24053.47934730  .00001418  00000-0  10718-3 0  9990,2 52862  53.2179 133.9911 0001587  89.3433 270.7741 15.08836473 93768,6917.891,95.438,540.854,538.658,0.0
52862.0,STARLINK-4010,PAYLOAD,2024-02-22 13:05:38,15.08842139,0.0001425,53.2166,133.6918,84.0724,276.0431,8.8812e-05,1.126e-05,0.0,0 STARLINK-4010,1 52862U 22062AJ  24053.54558212  .00001126  00000-0  88812-4 0  9992,2 52862  53.2166 133.6918 0001425  84.0724 276.0431 15.08842139 93282,6917.874,95.437,540.725,538.753,0.0
52862.0,STARLINK-4010,PAYLOAD,2024-02-23 14:31:47,15.08857446,0.0001511,53.2168,128.933,86.3707,273.7458,5.9078e-05,6.53e-06,0.0,0 STARLINK-4010,1 52862U 22062AJ  24054.60541037  .00000653  00000-0  59078-4 0  9993,2 52862  53.2168 128.9330 0001511  86.3707 273.7458 15.08857446 93449,6917.827,95.436,540.737,538.647,0.0
52862.0,STARLINK-4010,PAYLOAD,2024-02-23 22:28:43,15.08848787,0.0001626,53.2177,127.448,80.401,279.7166,-4.5543e-06,-3.61e-06,0.0,0 STARLINK-4010,1 52862U 22062AJ  24054.93661613 -.00000361  00000-0 -45543-5 0  9993,2 52862  53.2177 127.4480 0001626  80.4010 279.7166 15.08848787 93493,6917.854,95.437,540.843,538.594,0.0
52862.0,STARLINK-4010,PAYLOAD,2024-02-24 04:50:16,15.08838762,0.0001729,53.217,126.2584,89.3872,270.7318,4.9169e-05,4.95e-06,0.0,0 STARLINK-4010,1 52862U 22062AJ  24055.20158374  .00000495  00000-0  49169-4 0  9992,2 52862  53.2170 126.2584 0001729  89.3872 270.7318 15.08838762 94028,6917.884,95.438,540.945,538.553,0.0
52862.0,STARLINK-4010,PAYLOAD,2024-02-24 11:11:49,15.08839294,0.0001541,53.217,125.0687,96.9322,263.1845,5.1233e-05,5.27e-06,0.0,0 STARLINK-4010,1 52862U 22062AJ  24055.46654348  .00000527  00000-0  51233-4 0  9993,2 52862  53.2170 125.0687 0001541  96.9322 263.1845 15.08839294 93576,6917.883,95.438,540.814,538.682,0.0
52862.0,STARLINK-4010,PAYLOAD,2024-02-25 11:02:36,15.08847338,0.0001523,53.2174,120.6087,91.7419,268.3747,1.3028e-05,-8.1e-07,0.0,0 STARLINK-4010,1 52862U 22062AJ  24056.46014062 -.00000081  00000-0  13028-4 0  9993,2 52862  53.2174 120.6087 0001523  91.7419 268.3747 15.08847338 94213,6917.858,95.437,540.777,538.669,0.0
52862.0,STARLINK-4010,PAYLOAD,2024-02-25 14:13:22,15.08852064,0.000152,53.2174,120.0134,91.1974,268.9193,1.9322e-05,2e-07,0.0,0 STARLINK-4010,1 52862U 22062AJ  24056.59261700  .00000020  00000-0  19322-4 0  9995,2 52862  53.2174 120.0134 0001520  91.1974 268.9193 15.08852064 93747,6917.844,95.437,540.76,538.657,0.0
52862.0,STARLINK-4010,PAYLOAD,2024-02-25 20:34:54,15.08849321,0.0001536,53.2175,118.8247,92.0213,268.0955,2.9939e-05,1.89e-06,0.0,0 STARLINK-4010,1 52862U 22062AJ  24056.85757787  .00000189  00000-0  29939-4 0  9990,2 52862  53.2175 118.8247 0001536  92.0213 268.0955 15.08849321 93784,6917.852,95.437,540.779,538.654,0.0
52862.0,STARLINK-4010,PAYLOAD,2024-02-26 04:31:50,15.08838502,0.0001602,53.2174,117.3371,96.0273,264.0902,0.00012838,1.756e-05,0.0,0 STARLINK-4010,1 52862U 22062AJ  24057.18878366  .00001756  00000-0  12838-3 0  9994,2 52862  53.2174 117.3371 0001602  96.0273 264.0902 15.08838502 94327,6917.885,95.438,540.858,538.642,0.0
52862.0,STARLINK-4010,PAYLOAD,2024-02-26 10:53:23,15.08847878,0.0001803,53.2172,116.148,99.8249,260.2946,0.00016726,2.375e-05,0.0,0 STARLINK-4010,1 52862U 22062AJ  24057.45373913  .00002375  00000-0  16726-3 0  9990,2 52862  53.2172 116.1480 0001803  99.8249 260.2946 15.08847878 93871,6917.856,95.437,540.969,538.474,0.0
52862.0,STARLINK-4010,PAYLOAD,2024-02-27 10:44:10,15.08836308,0.0001728,53.218,111.6912,106.4287,253.6895,-1.7134e-06,-3.15e-06,0.0,0 STARLINK-4010,1 52862U 22062AJ  24058.44734901 -.00000315  00000-0 -17134-5 0  9998,2 52862  53.2180 111.6912 0001728 106.4287 253.6895 15.08836308 94510,6917.892,95.438,540.952,538.561,0.0
52862.0,STARLINK-4010,PAYLOAD,2024-02-27 20:16:29,15.08841572,0.0001495,53.2173,109.9039,94.6717,265.4446,-1.1411e-05,-4.7e-06,0.0,0 STARLINK-4010,1 52862U 22062AJ  24058.84478572 -.00000470  00000-0 -11411-4 0  9994,2 52862  53.2173 109.9039 0001495  94.6717 265.4446 15.08841572 94083,6917.876,95.437,540.775,538.706,0.0
52862.0,STARLINK-4010,PAYLOAD,2024-02-28 12:10:20,15.0884215,0.0001614,53.2176,106.9311,100.2135,259.9039,2.9279e-05,1.78e-06,0.0,0 STARLINK-4010,1 52862U 22062AJ  24059.50718578  .00000178  00000-0  29279-4 0  9995,2 52862  53.2176 106.9311 0001614 100.2135 259.9039 15.08842150 94671,6917.874,95.437,540.855,538.622,0.0
52862.0,STARLINK-4010,PAYLOAD,2024-02-28 20:07:16,15.08840421,0.0001582,53.2173,105.4435,87.3149,272.8024,-2.0484e-06,-3.21e-06,0.0,0 STARLINK-4010,1 52862U 22062AJ  24059.83838808 -.00000321  00000-0 -20484-5 0  9992,2 52862  53.2173 105.4435 0001582  87.3149 272.8024 15.08840421 94232,6917.879,95.438,540.839,538.65,0.0
52862.0,STARLINK-4010,PAYLOAD,2024-02-29 12:01:07,15.08841084,0.0001574,53.2164,102.4684,94.7299,265.3873,0.00013606,1.878e-05,0.0,0 STARLINK-4010,1 52862U 22062AJ  24060.50078569  .00001878  00000-0  13606-3 0  9990,2 52862  53.2164 102.4684 0001574  94.7299 265.3873 15.08841084 94330,6917.877,95.437,540.831,538.653,0.0
52862.0,STARLINK-4010,PAYLOAD,2024-02-29 19:58:03,15.08844887,0.000151,53.2163,100.9791,84.8467,275.2697,-7.4778e-06,-4.07e-06,0.0,0 STARLINK-4010,1 52862U 22062AJ  24060.83198598 -.00000407  00000-0 -74778-5 0  9999,2 52862  53.2163 100.9791 0001510  84.8467 275.2697 15.08844887 94875,6917.865,95.437,540.775,538.686,0.0
52862.0,STARLINK-4010,PAYLOAD,2024-03-01 02:19:36,15.08835559,0.0001291,53.2153,99.7909,87.4329,272.6811,8.1053e-05,1.002e-05,0.0,0 STARLINK-4010,1 52862U 22062AJ  24061.09694991  .00001002  00000-0  81053-4 0  9999,2 52862  53.2153  99.7909 0001291  87.4329 272.6811 15.08835559 94912,6917.894,95.438,540.652,538.866,0.0
52862.0,STARLINK-4010,PAYLOAD,2024-03-01 08:41:08,15.08838491,0.0001407,53.2144,98.6017,86.6688,273.4465,9.7671e-05,1.267e-05,0.0,0 STARLINK-4010,1 52862U 22062AJ  24061.36190873  .00001267  00000-0  97671-4 0  9995,2 52862  53.2144  98.6017 0001407  86.6688 273.4465 15.08838491 94460,6917.885,95.438,540.723,538.777,0.0
52862.0,STARLINK-4010,PAYLOAD,2024-03-02 08:31:55,15.08847171,0.0001414,53.2158,94.1413,94.8862,265.2291,5.6666e-05,6.14e-06,0.0,0 STARLINK-4010,1 52862U 22062AJ  24062.35550397  .00000614  00000-0  56666-4 0  9990,2 52862  53.2158  94.1413 0001414  94.8862 265.2291 15.08847171 95102,6917.858,95.437,540.702,538.745,0.0
52862.0,STARLINK-4010,PAYLOAD,2024-03-03 05:11:56,15.08837886,0.0001409,53.2154,90.2764,86.0438,274.0715,5.706e-05,6.2e-06,0.0,0 STARLINK-4010,1 52862U 22062AJ  24063.21663007  .00000620  00000-0  57060-4 0  9995,2 52862  53.2154  90.2764 0001409  86.0438 274.0715 15.08837886 95235,6917.887,95.438,540.727,538.777,0.0
52862.0,STARLINK-4010,PAYLOAD,2024-03-03 08:22:43,15.08820095,0.0001536,53.2171,89.6808,101.6643,258.4522,0.00034581,5.217e-05,0.0,0 STARLINK-4010,1 52862U 22062AJ  24063.34911653  .00005217  00000-0  34581-3 0  9991,2 52862  53.2171  89.6808 0001536 101.6643 258.4522 15.08820095 95256,6917.941,95.439,540.869,538.744,0.0
52862.0,STARLINK-4010,PAYLOAD,2024-03-04 05:02:43,15.08840457,0.0001607,53.2165,85.8157,101.4869,258.6303,4.6383e-05,4.5e-06,0.0,0 STARLINK-4010,1 52862U 22062AJ  24064.21022813  .00000450  00000-0  46383-4 0  9997,2 52862  53.2165  85.8157 0001607 101.4869 258.6303 15.08840457 95388,6917.879,95.438,540.856,538.632,0.0
52862.0,STARLINK-4010,PAYLOAD,2024-03-04 11:24:15,15.08852233,0.0001454,53.2159,84.6268,96.0005,264.1153,0.0001008,1.317e-05,0.0,0 STARLINK-4010,1 52862U 22062AJ  24064.47517876  .00001317  00000-0  10080-3 0  9990,2 52862  53.2159  84.6268 0001454  96.0005 264.1153 15.08852233 95427,6917.843,95.437,540.714,538.702,0.0
